NORAD_CAT_ID,OBJECT_NAME,OBJECT_TYPE,EPOCH,MEAN_MOTION,ECCENTRICITY,INCLINATION,RA_OF_ASC_NODE,ARG_OF_PERICENTER,MEAN_ANOMALY,BSTAR,MEAN_MOTION_DOT,MEAN_MOTION_DDOT,TLE_LINE0,TLE_LINE1,TLE_LINE2,SEMIMAJOR_AXIS,PERIOD,APOGEE,PERIGEE,DECAYED
53566.0,STARLINK-4576,PAYLOAD,2023-04-24 07:25:42,15.08856607,0.0001071,53.2175,89.4496,89.1066,271.0049,4.6067e-05,4.46e-06,0.0,0 STARLINK-4576,1 53566U 22101AR  23114.30951757  .00000446  00000-0  46067-4 0  9990,2 53566  53.2175  89.4496 0001071  89.1066 271.0049 15.08856607 38560,6917.83,95.437,540.436,538.954,0.0
53566.0,STARLINK-4576,PAYLOAD,2023-04-25 10:27:15,15.0885127,0.0001181,53.2176,84.3956,103.4271,256.6853,0.00010934,1.453e-05,0.0,0 STARLINK-4576,1 53566U 22101AR  23115.43559291  .00001453  00000-0  10934-3 0  9994,2 53566  53.2176  84.3956 0001181 103.4271 256.6853 15.08851270 38738,6917.846,95.437,540.528,538.894,0.0
53566.0,STARLINK-4576,PAYLOAD,2023-04-26 07:07:19,15.08819115,0.0001359,53.2181,80.53,98.7925,261.3221,-0.00015257,-2.714e-05,0.0,0 STARLINK-4576,1 53566U 22101AR  23116.29674923 -.00002714  00000-0 -15257-3 0  9995,2 53566  53.2181  80.5300 0001359  98.7925 261.3221 15.08819115 38862,6917.944,95.439,540.749,538.869,0.0
53566.0,STARLINK-4576,PAYLOAD,2023-04-26 15:04:14,15.08825815,0.0001229,53.2188,79.0443,96.9382,263.175,-8.6096e-05,-1.657e-05,0.0,0 STARLINK-4576,1 53566U 22101AR  23116.62794624 -.00001657  00000-0 -86096-4 0  9998,2 53566  53.2188  79.0443 0001229  96.9382 263.1750 15.08825815 38910,6917.924,95.438,540.639,538.939,0.0
53566.0,STARLINK-4576,PAYLOAD,2023-04-27 06:58:05,15.0884271,0.0001219,53.2184,76.0698,93.279,266.8342,2.4251e-05,9.8e-07,0.0,0 STARLINK-4576,1 53566U 22101AR  23117.29033658  .00000098  00000-0  24251-4 0  9996,2 53566  53.2184  76.0698 0001219  93.2790 266.8342 15.08842710 38322,6917.872,95.437,540.58,538.894,0.0
53566.0,STARLINK-4576,PAYLOAD,2023-04-28 06:48:51,15.08871532,0.0001308,53.217,71.6097,88.8966,271.2176,0.00084253,0.00013158,0.0,0 STARLINK-4576,1 53566U 22101AR  23118.28393209  .00013158  00000-0  84253-3 0  9995,2 53566  53.2170  71.6097 0001308  88.8966 271.2176 15.08871532 38470,6917.784,95.436,540.554,538.744,0.0
53566.0,STARLINK-4576,PAYLOAD,2023-04-28 21:07:20,15.08850202,0.0001114,53.2173,68.9336,99.5949,260.5169,-5.5599e-05,-1.173e-05,0.0,0 STARLINK-4576,1 53566U 22101AR  23118.88009335 -.00001173  00000-0 -55599-4 0  9993,2 53566  53.2173  68.9336 0001114  99.5949 260.5169 15.08850202 38567,6917.849,95.437,540.485,538.944,0.0
53566.0,STARLINK-4576,PAYLOAD,2023-04-29 03:28:52,15.0884986,9.18e-05,53.2177,67.7446,96.6118,263.4978,0.0002311,3.393e-05,0.0,0 STARLINK-4576,1 53566U 22101AR  23119.14505219  .00003393  00000-0  23110-3 0  9992,2 53566  53.2177  67.7446 0000918  96.6118 263.4978 15.08849860 39296,6917.85,95.437,540.35,539.08,0.0
53566.0,STARLINK-4576,PAYLOAD,2023-04-29 20:58:07,15.08840225,0.0001074,53.2174,64.4727,93.7923,266.3192,0.00098077,0.00015356,0.0,0 STARLINK-4576,1 53566U 22101AR  23119.87369719  .00015356  00000-0  98077-3 0  9991,2 53566  53.2174  64.4727 0001074  93.7923 266.3192 15.08840225 38717,6917.88,95.438,540.488,539.002,0.0
53566.0,STARLINK-4576,PAYLOAD,2023-04-30 06:30:26,15.08844344,0.0001015,53.2163,62.6887,94.3871,265.7237,0.00018937,2.728e-05,0.0,0 STARLINK-4576,1 53566U 22101AR  23120.27113489  .00002728  00000-0  18937-3 0  9994,2 53566  53.2163  62.6887 0001015  94.3871 265.7237 15.08844344 39468,6917.867,95.437,540.434,539.03,0.0
53566.0,STARLINK-4576,PAYLOAD,2023-04-30 19:13:31,15.08834091,0.0001115,53.2153,60.3086,99.6422,260.4697,7.3938e-05,8.89e-06,0.0,0 STARLINK-4576,1 53566U 22101AR  23120.80106064  .00000889  00000-0  73938-4 0  9993,2 53566  53.2153  60.3086 0001115  99.6422 260.4697 15.08834091 38856,6917.898,95.438,540.535,538.992,0.0
53566.0,STARLINK-4576,PAYLOAD,2023-05-01 04:45:50,15.08838355,9.6e-05,53.2166,58.5251,93.3987,266.7115,0.00015127,2.12e-05,0.0,0 STARLINK-4576,1 53566U 22101AR  23121.19850146  .00002120  00000-0  15127-3 0  9998,2 53566  53.2166  58.5251 0000960  93.3987 266.7115 15.08838355 39602,6917.885,95.438,540.415,539.086,0.0
53566.0,STARLINK-4576,PAYLOAD,2023-05-02 04:36:37,15.08853958,0.0001173,53.2168,54.0642,93.3153,266.7973,0.00043036,6.571e-05,0.0,0 STARLINK-4576,1 53566U 22101AR  23122.19209654  .00006571  00000-0  43036-3 0  9995,2 53566  53.2168  54.0642 0001173  93.3153 266.7973 15.08853958 39069,6917.838,95.437,540.514,538.891,0.0
53566.0,STARLINK-4576,PAYLOAD,2023-05-03 02:52:00,15.0886466,0.0001155,53.2177,49.9022,78.8827,281.2295,0.00045804,7.014e-05,0.0,0 STARLINK-4576,1 53566U 22101AR  23123.11945038  .00007014  00000-0  45804-3 0  9999,2 53566  53.2177  49.9022 0001155  78.8827 281.2295 15.08864660 39892,6917.805,95.436,540.469,538.871,0.0
53566.0,STARLINK-4576,PAYLOAD,2023-05-03 18:45:52,15.08845108,0.0001179,53.2173,46.9293,87.1635,272.9492,-3.5795e-05,-8.58e-06,0.0,0 STARLINK-4576,1 53566U 22101AR  23123.78185651 -.00000858  00000-0 -35795-4 0  9999,2 53566  53.2173  46.9293 0001179  87.1635 272.9492 15.08845108 39309,6917.865,95.437,540.545,538.914,0.0
53566.0,STARLINK-4576,PAYLOAD,2023-05-04 04:18:11,15.08846032,0.000113,53.2186,45.1444,86.2729,273.8392,-2.5807e-05,-6.99e-06,0.0,0 STARLINK-4576,1 53566U 22101AR  23124.17929782 -.00000699  00000-0 -25807-4 0  9990,2 53566  53.2186  45.1444 0001130  86.2729 273.8392 15.08846032 40053,6917.862,95.437,540.509,538.945,0.0
53566.0,STARLINK-4576,PAYLOAD,2023-05-04 21:47:25,15.08850459,0.0001158,53.2184,41.8729,84.3972,275.7152,-7.9774e-05,-1.558e-05,0.0,0 STARLINK-4576,1 53566U 22101AR  23124.90793760 -.00001558  00000-0 -79774-4 0  9993,2 53566  53.2184  41.8729 0001158  84.3972 275.7152 15.08850459 40164,6917.848,95.437,540.515,538.912,0.0
53566.0,STARLINK-4576,PAYLOAD,2023-05-05 04:08:57,15.08860056,0.0001152,53.2194,40.6839,89.8048,270.3076,1.1691e-05,-1.02e-06,0.0,0 STARLINK-4576,1 53566U 22101AR  23125.17288718 -.00000102  00000-0  11691-4 0  9992,2 53566  53.2194  40.6839 0001152  89.8048 270.3076 15.08860056 39519,6917.819,95.436,540.481,538.887,0.0
53566.0,STARLINK-4576,PAYLOAD,2023-05-05 21:38:13,15.0883416,0.0001232,53.2191,37.4129,98.9667,261.1465,7.1532e-05,8.51e-06,0.0,0 STARLINK-4576,1 53566U 22101AR  23125.90154457  .00000851  00000-0  71532-4 0  9995,2 53566  53.2191  37.4129 0001232  98.9667 261.1465 15.08834160 40316,6917.898,95.438,540.616,538.911,0.0
53566.0,STARLINK-4576,PAYLOAD,2023-05-06 00:48:59,15.0883751,0.0001218,53.2178,36.818,84.8235,275.2896,0.00010557,1.393e-05,0.0,0 STARLINK-4576,1 53566U 22101AR  23126.03402297  .00001393  00000-0  10557-3 0  9999,2 53566  53.2178  36.8180 0001218  84.8235 275.2896 15.08837510 39640,6917.888,95.438,540.596,538.91,0.0
53566.0,STARLINK-4576,PAYLOAD,2023-05-07 00:39:45,15.08862841,0.0001087,53.2168,32.3578,84.1049,276.0067,0.00031203,4.685e-05,0.0,0 STARLINK-4576,1 53566U 22101AR  23127.02761016  .00004685  00000-0  31203-3 0  9994,2 53566  53.2168  32.3578 0001087  84.1049 276.0067 15.08862841 39791,6917.811,95.436,540.428,538.924,0.0
53566.0,STARLINK-4576,PAYLOAD,2023-05-07 21:19:47,15.08831952,9.02e-05,53.216,28.4937,92.1337,267.9759,1.5924e-05,-3.4e-07,0.0,0 STARLINK-4576,1 53566U 22101AR  23127.88874954 -.00000034  00000-0  15924-4 0  9992,2 53566  53.2160  28.4937 0000902  92.1337 267.9759 15.08831952 39923,6917.905,95.438,540.394,539.146,0.0
53566.0,STARLINK-4576,PAYLOAD,2023-05-08 21:10:34,15.08847719,7.28e-05,53.2162,24.0322,94.0726,266.0349,0.00027364,4.071e-05,0.0,0 STARLINK-4576,1 53566U 22101AR  23128.88234557  .00004071  00000-0  27364-3 0  9996,2 53566  53.2162  24.0322 0000728  94.0726 266.0349 15.08847719 40761,6917.857,95.437,540.225,539.218,0.0
53566.0,STARLINK-4576,PAYLOAD,2023-05-09 01:56:44,15.08859754,6.55e-05,53.2158,23.1411,100.9901,259.1164,0.0010046,0.00015745,0.0,0 STARLINK-4576,1 53566U 22101AR  23129.08106528  .00015745  00000-0  10046-2 0  9993,2 53566  53.2158  23.1411 0000655 100.9901 259.1164 15.08859754 40104,6917.82,95.436,540.138,539.232,0.0
53566.0,STARLINK-4576,PAYLOAD,2023-05-10 01:47:30,15.08855307,6.6e-05,53.2157,18.6807,101.0093,259.0974,0.00063886,9.899e-05,0.0,0 STARLINK-4576,1 53566U 22101AR  23130.07466397  .00009899  00000-0  63886-3 0  9991,2 53566  53.2157  18.6807 0000660 101.0093 259.0974 15.08855307 40941,6917.834,95.437,540.155,539.242,0.0
53566.0,STARLINK-4576,PAYLOAD,2023-05-10 19:16:45,15.08855045,6.29e-05,53.2157,15.4105,85.5993,274.5071,0.0015014,0.00023697,0.0,0 STARLINK-4576,1 53566U 22101AR  23130.80330465  .00023697  00000-0  15014-2 0  9999,2 53566  53.2157  15.4105 0000629  85.5993 274.5071 15.08855045 40362,6917.834,95.437,540.135,539.264,0.0
53566.0,STARLINK-4576,PAYLOAD,2023-05-11 00:02:54,15.08856813,7.14e-05,53.2153,14.5182,82.2786,277.8287,0.0014297,0.00022549,0.0,0 STARLINK-4576,1 53566U 22101AR  23131.00202377  .00022549  00000-0  14297-2 0  9999,2 53566  53.2153  14.5182 0000714  82.2786 277.8287 15.08856813 40394,6917.829,95.436,540.188,539.2,0.0
53566.0,STARLINK-4576,PAYLOAD,2023-05-11 22:18:19,15.08846861,7.49e-05,53.2158,10.354,96.0743,264.0334,0.00084286,0.00013154,0.0,0 STARLINK-4576,1 53566U 22101AR  23131.92938685  .00013154  00000-0  84286-3 0  9996,2 53566  53.2158  10.3540 0000749  96.0743 264.0334 15.08846861 41221,6917.859,95.437,540.243,539.206,0.0
53566.0,STARLINK-4576,PAYLOAD,2023-05-12 18:58:20,15.08839812,7.51e-05,53.2144,6.4875,103.6353,256.4723,0.00080495,0.00012546,0.0,0 STARLINK-4576,1 53566U 22101AR  23132.79051322  .00012546  00000-0  80495-3 0  9998,2 53566  53.2144   6.4875 0000751 103.6353 256.4723 15.08839812 40660,6917.881,95.438,540.265,539.226,0.0
53566.0,STARLINK-4576,PAYLOAD,2023-05-13 01:19:52,15.08848716,6.55e-05,53.2155,5.2991,74.933,285.1735,0.0014379,0.00022676,0.0,0 STARLINK-4576,1 53566U 22101AR  23133.05547340  .00022676  00000-0  14379-2 0  9990,2 53566  53.2155   5.2991 0000655  74.9330 285.1735 15.08848716 41392,6917.854,95.437,540.172,539.266,0.0
